{
 "type": "FeatureCollection",
 "name": "bayarea",
 "crs": {
  "type": "name",
  "properties": {
   "name": "urn:ogc:def:crs:OGC:1.3:CRS84"
  }
 },
 "features": [
  {
   "type": "Feature",
   "properties": {
    "name": "Bay Area"
   },
   "geometry": {
    "type": "Polygon",
    "coordinates": [
     [
      [
       -122.75,
       37.2
      ],
      [
       -121.7,
       37.2
      ],
      [
       -121.7,
       38.2
      ],
      [
       -122.75,
       38.2
      ],
      [
       -122.75,
       37.2
      ]
     ]
    ]
   }
  }
 ]
}
