{
 "type": "FeatureCollection",
 "name": "kcmetro",
 "crs": {
  "type": "name",
  "properties": {
   "name": "urn:ogc:def:crs:OGC:1.3:CRS84"
  }
 },
 "features": [
  {
   "type": "Feature",
   "properties": {
    "name": "Kansas City metro core (MO/KS)"
   },
   "geometry": {
    "type": "Polygon",
    "coordinates": [
     [
      [
       -94.8,
       38.94
      ],
      [
       -94.4,
       38.94
      ],
      [
       -94.4,
       39.22
      ],
      [
       -94.8,
       39.22
      ],
      [
       -94.8,
       38.94
      ]
     ]
    ]
   }
  }
 ]
}
