{
 "type": "FeatureCollection",
 "name": "phoenix",
 "crs": {
  "type": "name",
  "properties": {
   "name": "urn:ogc:def:crs:OGC:1.3:CRS84"
  }
 },
 "features": [
  {
   "type": "Feature",
   "properties": {
    "name": "Phoenix"
   },
   "geometry": {
    "type": "Polygon",
    "coordinates": [
     [
      [
       -112.55,
       33.2
      ],
      [
       -111.55,
       33.2
      ],
      [
       -111.55,
       33.8
      ],
      [
       -112.55,
       33.8
      ],
      [
       -112.55,
       33.2
      ]
     ]
    ]
   }
  }
 ]
}
